IRIDIUM 150             
1 43257U 18030J   26023.86684037  .00000266  00000+0  87853-4 0  9996
2 43257  86.3993 350.7955 0002213  83.7185 276.4263 14.34220020409477
IRIDIUM 143             
1 43258U 18030K   26023.84781543  .00000404  00000+0  13715-3 0  9994
2 43258  86.3997 350.8906 0002230  79.9273 280.2174 14.34215657409400
IRIDIUM 161             
1 43478U 18047C   26023.40620269  .00000684  00000+0  19738-3 0  9996
2 43478  86.4538 148.9862 0002099 100.9179 259.2258 14.43270619404252
IRIDIUM 152             
1 43479U 18047D   26023.61122694  .00000521  00000+0  17890-3 0  9996
2 43479  86.4014 148.7612 0002149  99.2791 260.8648 14.34214368401762
IRIDIUM 147             
1 43480U 18047E   26023.40826090  .00000255  00000+0  83812-4 0  9998
2 43480  86.4017 148.8488 0001955  93.6178 266.5241 14.34220584401736
IRIDIUM 110             
1 43481U 18047F   26023.76344855  .00000241  00000+0  79077-4 0  9995
2 43481  86.4021 148.7886 0002143 109.7745 250.3682 14.34215971401770
IRIDIUM 162             
1 43482U 18047G   26023.60788638  .00000779  00000+0  22567-3 0  9997
2 43482  86.4539 148.7950 0002421  95.0107 265.1370 14.43282022404272
IRIDIUM 160             
1 43569U 18061A   26023.70928153  .00000303  00000+0  10104-3 0  9995
2 43569  86.3982 117.2239 0002087 101.6121 258.5309 14.34220906392668
